[{"OBJECT_NAME":"STARLINK-30043","OBJECT_ID":"2023-102P","EPOCH":"2026-03-09T22:00:01.999584","MEAN_MOTION":15.16913406,"ECCENTRICITY":0.00016842,"INCLINATION":43,"RA_OF_ASC_NODE":246.5874,"ARG_OF_PERICENTER":259.2585,"MEAN_ANOMALY":70.8182,"EPHEMERIS_TYPE":0,"CLASSIFICATION_TYPE":"U","NORAD_CAT_ID":57417,"ELEMENT_SET_NO":999,"REV_AT_EPOCH":538,"BSTAR":0.0056084196,"MEAN_MOTION_DOT":0.0011416,"MEAN_MOTION_DDOT":0},{"OBJECT_NAME":"COSMOS 1275 DEB","OBJECT_ID":"1981-053GB","EPOCH":"2026-03-09T12:07:35.563872","MEAN_MOTION":15.18010704,"ECCENTRICITY":0.0001087,"INCLINATION":82.9638,"RA_OF_ASC_NODE":94.4677,"ARG_OF_PERICENTER":59.5109,"MEAN_ANOMALY":300.6233,"EPHEMERIS_TYPE":0,"CLASSIFICATION_TYPE":"U","NORAD_CAT_ID":13481,"ELEMENT_SET_NO":999,"REV_AT_EPOCH":25258,"BSTAR":0.0069311321,"MEAN_MOTION_DOT":0.00143562,"MEAN_MOTION_DDOT":0}]
